{
  "norad_id": 65430,
  "name": "STARLINK-35025",
  "history": [
    {
      "epoch": "2026-03-28T20:30:12.193920",
      "apogee_km": 476.15982389190503,
      "perigee_km": 474.23390001001826,
      "latitude_deg": -42.869658235197896,
      "longitude_deg": 85.01354879979044,
      "semi_major_axis_km": 6853.333861950961,
      "eccentricity": 0.00014051,
      "inclination_deg": 53.1585,
      "raan_deg": 143.6665,
      "arg_perigee_deg": 80.8682,
      "mean_anomaly_deg": 279.2478,
      "mean_motion_rev_day": 15.30206098
    }
  ]
}