{"fetched_at":"2026-03-29T16:36:15Z","count":15609,"tles":[{"name":"STARLINK-35025","line1":"1 65430U 25192AC  26087.85430780  .00020963  00000+0  71778-3 0  9997","line2":"2 65430  53.1585 143.6665 0001405  80.8682 279.2478 15.30206098 32312","category":"Starlink"}]}